[{"OBJECT_NAME":"EKRAN 2","OBJECT_ID":"1977-092A","EPOCH":"2026-04-26T12:19:17.175936","MEAN_MOTION":1.00256432,"ECCENTRICITY":0.0037297,"INCLINATION":4.3689,"RA_OF_ASC_NODE":275.381,"ARG_OF_PERICENTER":20.1628,"MEAN_ANOMALY":202.0999,"EPHEMERIS_TYPE":0,"CLASSIFICATION_TYPE":"U","NORAD_CAT_ID":10365,"ELEMENT_SET_NO":999,"REV_AT_EPOCH":13433,"BSTAR":0,"MEAN_MOTION_DOT":-3.09e-6,"MEAN_MOTION_DDOT":0},{"OBJECT_NAME":"METEOSAT-1","OBJECT_ID":"1977-108A","EPOCH":"2026-04-26T05:05:40.470144","MEAN_MOTION":1.00310625,"ECCENTRICITY":0.0010823,"INCLINATION":5.2068,"RA_OF_ASC_NODE":281.7633,"ARG_OF_PERICENTER":94.4495,"MEAN_ANOMALY":292.3418,"EPHEMERIS_TYPE":0,"CLASSIFICATION_TYPE":"U","NORAD_CAT_ID":10489,"ELEMENT_SET_NO":999,"REV_AT_EPOCH":13669,"BSTAR":0,"MEAN_MOTION_DOT":9.4e-7,"MEAN_MOTION_DDOT":0},{"OBJECT_NAME":"INTELSAT 4A-F3","OBJECT_ID":"1978-002A","EPOCH":"2026-04-26T09:57:22.608864","MEAN_MOTION":0.99914265,"ECCENTRICITY":0.0003538,"INCLINATION":9.0914,"RA_OF_ASC_NODE":313.0195,"ARG_OF_PERICENTER":313.2535,"MEAN_ANOMALY":57.9404,"EPHEMERIS_TYPE":0,"CLASSIFICATION_TYPE":"U","NORAD_CAT_ID":10557,"ELEMENT_SET_NO":999,"REV_AT_EPOCH":4823,"BSTAR":0,"MEAN_MOTION_DOT":-3.1e-6,"MEAN_MOTION_DDOT":0},{"OBJECT_NAME":"INTELSAT 4A-F6","OBJECT_ID":"1978-035A","EPOCH":"2026-04-26T09:06:24.707232","MEAN_MOTION":1.00275334,"ECCENTRICITY":0.0007534,"INCLINATION":8.8723,"RA_OF_ASC_NODE":312.037,"ARG_OF_PERICENTER":319.7588,"MEAN_ANOMALY":220.9302,"EPHEMERIS_TYPE":0,"CLASSIFICATION_TYPE":"U","NORAD_CAT_ID":10778,"ELEMENT_SET_NO":999,"REV_AT_EPOCH":12164,"BSTAR":0,"MEAN_MOTION_DOT":-3.02e-6,"MEAN_MOTION_DDOT":0},{"OBJECT_NAME":"OPS 8790","OBJECT_ID":"1978-038A","EPOCH":"2026-04-26T12:08:40.693920","MEAN_MOTION":1.0050045,"ECCENTRICITY":0.0013482,"INCLINATION":3.6759,"RA_OF_ASC_NODE":323.8281,"ARG_OF_PERICENTER":299.8145,"MEAN_ANOMALY":193.7653,"EPHEMERIS_TYPE":0,"CLASSIFICATION_TYPE":"U","NORAD_CAT_ID":10787,"ELEMENT_SET_NO":999,"REV_AT_EPOCH":2474,"BSTAR":0,"MEAN_MOTION_DOT":-2.7e-7,"MEAN_MOTION_DDOT":0},{"OBJECT_NAME":"YURI (BS)","OBJECT_ID":"1978-039A","EPOCH":"2026-04-25T13:52:50.816352","MEAN_MOTION":1.00209893,"ECCENTRICITY":0.0016402,"INCLINATION":5.6034,"RA_OF_ASC_NODE":284.5139,"ARG_OF_PERICENTER":328.6967,"MEAN_ANOMALY":225.9079,"EPHEMERIS_TYPE":0,"CLASSIFICATION_TYPE":"U","NORAD_CAT_ID":10792,"ELEMENT_SET_NO":999,"REV_AT_EPOCH":11823,"BSTAR":0,"MEAN_MOTION_DOT":5.3e-7,"MEAN_MOTION_DDOT":0},{"OBJECT_NAME":"RADUGA 4","OBJECT_ID":"1978-073A","EPOCH":"2026-04-26T10:37:48.731232","MEAN_MOTION":1.00222944,"ECCENTRICITY":0.001138,"INCLINATION":4.9182,"RA_OF_ASC_NODE":279.2283,"ARG_OF_PERICENTER":36.8277,"MEAN_ANOMALY":160.2772,"EPHEMERIS_TYPE":0,"CLASSIFICATION_TYPE":"U","NORAD_CAT_ID":10987,"ELEMENT_SET_NO":999,"REV_AT_EPOCH":11908,"BSTAR":0,"MEAN_MOTION_DOT":-3.32e-6,"MEAN_MOTION_DDOT":0},{"OBJECT_NAME":"EKRAN 3","OBJECT_ID":"1979-015A","EPOCH":"2026-04-26T12:12:25.334784","MEAN_MOTION":1.00328642,"ECCENTRICITY":0.0041017,"INCLINATION":5.2503,"RA_OF_ASC_NODE":282.201,"ARG_OF_PERICENTER":9.925,"MEAN_ANOMALY":179.5029,"EPHEMERIS_TYPE":0,"CLASSIFICATION_TYPE":"U","NORAD_CAT_ID":11273,"ELEMENT_SET_NO":999,"REV_AT_EPOCH":13449,"BSTAR":0,"MEAN_MOTION_DOT":-1.13e-6,"MEAN_MOTION_DDOT":0},{"OBJECT_NAME":"RADUGA 5","OBJECT_ID":"1979-035A","EPOCH":"2026-04-26T12:14:02.679072","MEAN_MOTION":1.00294167,"ECCENTRICITY":0.000303,"INCLINATION":5.4229,"RA_OF_ASC_NODE":282.9897,"ARG_OF_PERICENTER":218.3656,"MEAN_ANOMALY":336.3311,"EPHEMERIS_TYPE":0,"CLASSIFICATION_TYPE":"U","NORAD_CAT_ID":11343,"ELEMENT_SET_NO":999,"REV_AT_EPOCH":12884,"BSTAR":0,"MEAN_MOTION_DOT":-1.6e-6,"MEAN_MOTION_DDOT":0},{"OBJECT_NAME":"GORIZONT 2","OBJECT_ID":"1979-062A","EPOCH":"2026-04-26T12:11:32.919360","MEAN_MOTION":1.00238215,"ECCENTRICITY":0.000535,"INCLINATION":5.8641,"RA_OF_ASC_NODE":286.4168,"ARG_OF_PERICENTER":4.2168,"MEAN_ANOMALY":177.2691,"EPHEMERIS_TYPE":0,"CLASSIFICATION_TYPE":"U","NORAD_CAT_ID":11440,"ELEMENT_SET_NO":999,"REV_AT_EPOCH":13750,"BSTAR":0,"MEAN_MOTION_DOT":-6.1e-7,"MEAN_MOTION_DDOT":0},{"OBJECT_NAME":"WESTAR 3","OBJECT_ID":"1979-072A","EPOCH":"2026-04-26T12:38:36.178368","MEAN_MOTION":0.99937648,"ECCENTRICITY":0.0003019,"INCLINATION":10.3411,"RA_OF_ASC_NODE":321.4836,"ARG_OF_PERICENTER":352.6036,"MEAN_ANOMALY":348.8211,"EPHEMERIS_TYPE":0,"CLASSIFICATION_TYPE":"U","NORAD_CAT_ID":11484,"ELEMENT_SET_NO":999,"REV_AT_EPOCH":13999,"BSTAR":0,"MEAN_MOTION_DOT":-1.06e-6,"MEAN_MOTION_DDOT":0},{"OBJECT_NAME":"EKRAN 4","OBJECT_ID":"1979-087A","EPOCH":"2026-04-26T12:18:47.225376","MEAN_MOTION":1.00285822,"ECCENTRICITY":0.0008292,"INCLINATION":5.723,"RA_OF_ASC_NODE":285.3164,"ARG_OF_PERICENTER":155.1429,"MEAN_ANOMALY":54.9523,"EPHEMERIS_TYPE":0,"CLASSIFICATION_TYPE":"U","NORAD_CAT_ID":11561,"ELEMENT_SET_NO":999,"REV_AT_EPOCH":4685,"BSTAR":0,"MEAN_MOTION_DOT":-3.04e-6,"MEAN_MOTION_DDOT":0},{"OBJECT_NAME":"SL-12 R/B(2)","OBJECT_ID":"1975-123F","EPOCH":"2026-04-26T11:25:28.674912","MEAN_MOTION":1.00492255,"ECCENTRICITY":0.0013803,"INCLINATION":2.6772,"RA_OF_ASC_NODE":264.8802,"ARG_OF_PERICENTER":214.5779,"MEAN_ANOMALY":105.6819,"EPHEMERIS_TYPE":0,"CLASSIFICATION_TYPE":"U","NORAD_CAT_ID":11568,"ELEMENT_SET_NO":999,"REV_AT_EPOCH":12147,"BSTAR":0,"MEAN_MOTION_DOT":1.21e-6,"MEAN_MOTION_DDOT":0},{"OBJECT_NAME":"EKRAN 2 DEB","OBJECT_ID":"1977-092H","EPOCH":"2026-04-26T12:02:33.779904","MEAN_MOTION":1.00349447,"ECCENTRICITY":0.0007632,"INCLINATION":4.2721,"RA_OF_ASC_NODE":274.7645,"ARG_OF_PERICENTER":245.1606,"MEAN_ANOMALY":274.3774,"EPHEMERIS_TYPE":0,"CLASSIFICATION_TYPE":"U","NORAD_CAT_ID":11581,"ELEMENT_SET_NO":999,"REV_AT_EPOCH":10384,"BSTAR":0,"MEAN_MOTION_DOT":1.29e-6,"MEAN_MOTION_DDOT":0},{"OBJECT_NAME":"GORIZONT 3","OBJECT_ID":"1979-105A","EPOCH":"2026-04-26T12:10:47.991360","MEAN_MOTION":1.00197193,"ECCENTRICITY":0.0010534,"INCLINATION":6.0548,"RA_OF_ASC_NODE":288.3078,"ARG_OF_PERICENTER":267.8509,"MEAN_ANOMALY":269.3314,"EPHEMERIS_TYPE":0,"CLASSIFICATION_TYPE":"U","NORAD_CAT_ID":11648,"ELEMENT_SET_NO":999,"REV_AT_EPOCH":12196,"BSTAR":0,"MEAN_MOTION_DOT":-3.3e-7,"MEAN_MOTION_DDOT":0},{"OBJECT_NAME":"OPS 6393 (FLTSATCOM 3)","OBJECT_ID":"1980-004A","EPOCH":"2026-04-26T11:30:29.357280","MEAN_MOTION":1.00174756,"ECCENTRICITY":0.0020944,"INCLINATION":6.2776,"RA_OF_ASC_NODE":306.9476,"ARG_OF_PERICENTER":244.8798,"MEAN_ANOMALY":122.0398,"EPHEMERIS_TYPE":0,"CLASSIFICATION_TYPE":"U","NORAD_CAT_ID":11669,"ELEMENT_SET_NO":999,"REV_AT_EPOCH":16934,"BSTAR":0,"MEAN_MOTION_DOT":-2.76e-6,"MEAN_MOTION_DDOT":0},{"OBJECT_NAME":"SL-12 R/B(2)","OBJECT_ID":"1975-097F","EPOCH":"2026-04-26T11:23:29.002272","MEAN_MOTION":1.00116071,"ECCENTRICITY":0.0021434,"INCLINATION":2.4904,"RA_OF_ASC_NODE":262.3744,"ARG_OF_PERICENTER":223.8445,"MEAN_ANOMALY":101.7972,"EPHEMERIS_TYPE":0,"CLASSIFICATION_TYPE":"U","NORAD_CAT_ID":11676,"ELEMENT_SET_NO":999,"REV_AT_EPOCH":11861,"BSTAR":0,"MEAN_MOTION_DOT":1.15e-6,"MEAN_MOTION_DDOT":0}]
