EKRAN 2                 
1 10365U 77092A   26116.51339324 -.00000309  00000+0  00000+0 0  9997
2 10365   4.3689 275.3810 0037297  20.1628 202.0999  1.00256432134338
METEOSAT-1              
1 10489U 77108A   26116.21227396  .00000094  00000+0  00000+0 0  9994
2 10489   5.2068 281.7633 0010823  94.4495 292.3418  1.00310625136696
INTELSAT 4A-F3          
1 10557U 78002A   26116.41484501 -.00000310  00000+0  00000+0 0  9991
2 10557   9.0914 313.0195 0003538 313.2535  57.9404  0.99914265 48237
INTELSAT 4A-F6          
1 10778U 78035A   26116.37945263 -.00000302  00000+0  00000+0 0  9995
2 10778   8.8723 312.0370 0007534 319.7588 220.9302  1.00275334121646
OPS 8790                
1 10787U 78038A   26116.50602655 -.00000027  00000+0  00000+0 0  9992
2 10787   3.6759 323.8281 0013482 299.8145 193.7653  1.00500450 24744
YURI (BS)               
1 10792U 78039A   26115.57836593  .00000053  00000+0  00000+0 0  9993
2 10792   5.6034 284.5139 0016402 328.6967 225.9079  1.00209893118236
RADUGA 4                
1 10987U 78073A   26116.44292513 -.00000332  00000+0  00000+0 0  9993
2 10987   4.9182 279.2283 0011380  36.8277 160.2772  1.00222944119088
EKRAN 3                 
1 11273U 79015A   26116.50862656 -.00000113  00000+0  00000+0 0  9994
2 11273   5.2503 282.2010 0041017   9.9250 179.5029  1.00328642134494
RADUGA 5                
1 11343U 79035A   26116.50975323 -.00000160  00000+0  00000+0 0  9992
2 11343   5.4229 282.9897 0003030 218.3656 336.3311  1.00294167128841
GORIZONT 2              
1 11440U 79062A   26116.50801990 -.00000061  00000+0  00000+0 0  9998
2 11440   5.8641 286.4168 0005350   4.2168 177.2691  1.00238215137506
WESTAR 3                
1 11484U 79072A   26116.52680762 -.00000106  00000+0  00000+0 0  9991
2 11484  10.3411 321.4836 0003019 352.6036 348.8211  0.99937648139998
EKRAN 4                 
1 11561U 79087A   26116.51304659 -.00000304  00000+0  00000+0 0  9990
2 11561   5.7230 285.3164 0008292 155.1429  54.9523  1.00285822 46859
SL-12 R/B(2)            
1 11568U 75123F   26116.47602633  .00000121  00000+0  00000+0 0  9998
2 11568   2.6772 264.8802 0013803 214.5779 105.6819  1.00492255121470
EKRAN 2 DEB             
1 11581U 77092H   26116.50177986  .00000129  00000+0  00000+0 0  9990
2 11581   4.2721 274.7645 0007632 245.1606 274.3774  1.00349447103843
GORIZONT 3              
1 11648U 79105A   26116.50749990 -.00000033  00000+0  00000+0 0  9996
2 11648   6.0548 288.3078 0010534 267.8509 269.3314  1.00197193121969
OPS 6393 (FLTSATCOM 3)  
1 11669U 80004A   26116.47950645 -.00000276  00000+0  00000+0 0  9995
2 11669   6.2776 306.9476 0020944 244.8798 122.0398  1.00174756169348
SL-12 R/B(2)            
1 11676U 75097F   26116.47464123  .00000115  00000+0  00000+0 0  9991
2 11676   2.4904 262.3744 0021434 223.8445 101.7972  1.00116071118613
